NORAD_CAT_ID,OBJECT_NAME,OBJECT_TYPE,EPOCH,MEAN_MOTION,ECCENTRICITY,INCLINATION,RA_OF_ASC_NODE,ARG_OF_PERICENTER,MEAN_ANOMALY,BSTAR,MEAN_MOTION_DOT,MEAN_MOTION_DDOT,TLE_LINE0,TLE_LINE1,TLE_LINE2,SEMIMAJOR_AXIS,PERIOD,APOGEE,PERIGEE,DECAYED
49756.0,STARLINK-3207,PAYLOAD,2023-07-29 16:44:31,15.08838578,0.0001212,53.2169,101.7576,113.8593,246.2526,0.00017957,2.571e-05,0.0,0 STARLINK-3207,1 49756U 21115AJ  23210.69758338  .00002571  00000-0  17957-3 0  9995,2 49756  53.2169 101.7576 0001212 113.8593 246.2526 15.08838578 92766,6917.885,95.438,540.588,538.911,0.0
49756.0,STARLINK-3207,PAYLOAD,2023-07-30 00:41:26,15.08851018,0.0001221,53.2166,100.2709,105.6724,254.4403,0.00027985,4.17e-05,0.0,0 STARLINK-3207,1 49756U 21115AJ  23211.02877415  .00004170  00000-0  27985-3 0  9990,2 49756  53.2166 100.2709 0001221 105.6724 254.4403 15.08851018 92815,6917.847,95.437,540.556,538.867,0.0
49756.0,STARLINK-3207,PAYLOAD,2023-07-30 16:35:18,15.08843157,0.0001451,53.2175,97.299,109.4495,250.6654,0.00019499,2.817e-05,0.0,0 STARLINK-3207,1 49756U 21115AJ  23211.69118218  .00002817  00000-0  19499-3 0  9999,2 49756  53.2175  97.2990 0001451 109.4495 250.6654 15.08843157 92916,6917.871,95.437,540.74,538.732,0.0
49756.0,STARLINK-3207,PAYLOAD,2023-08-01 01:58:23,15.08851828,0.000121,53.2161,91.0517,97.24,262.8729,-4.4785e-05,-1.001e-05,0.0,0 STARLINK-3207,1 49756U 21115AJ  23213.08221755 -.00001001  00000-0 -44785-4 0  9998,2 49756  53.2161  91.0517 0001210  97.2400 262.8729 15.08851828 93127,6917.844,95.437,540.546,538.872,0.0
49756.0,STARLINK-3207,PAYLOAD,2023-08-01 19:27:38,15.08840388,0.0001095,53.2159,87.78,90.5479,269.5638,-4.0106e-05,-9.26e-06,0.0,0 STARLINK-3207,1 49756U 21115AJ  23213.81086267 -.00000926  00000-0 -40106-4 0  9994,2 49756  53.2159  87.7800 0001095  90.5479 269.5638 15.08840388 93238,6917.879,95.438,540.502,538.987,0.0
49756.0,STARLINK-3207,PAYLOAD,2023-08-02 08:10:43,15.08847681,0.0001065,53.2163,85.4012,87.8893,272.2221,5.2386e-08,-2.87e-06,0.0,0 STARLINK-3207,1 49756U 21115AJ  23214.34077553 -.00000287  00000-0  52386-7 0  9996,2 49756  53.2163  85.4012 0001065  87.8893 272.2221 15.08847681 93310,6917.857,95.437,540.459,538.985,0.0
49756.0,STARLINK-3207,PAYLOAD,2023-08-03 19:09:12,15.08838581,0.0001138,53.2177,78.8599,107.3652,252.7465,-7.4274e-05,-1.47e-05,0.0,0 STARLINK-3207,1 49756U 21115AJ  23215.79806588 -.00001470  00000-0 -74274-4 0  9997,2 49756  53.2177  78.8599 0001138 107.3652 252.7465 15.08838581 93539,6917.885,95.438,540.537,538.962,0.0
49756.0,STARLINK-3207,PAYLOAD,2023-08-04 22:10:45,15.08846709,9.04e-05,53.2165,73.8053,81.9798,278.1296,2.811e-05,1.6e-06,0.0,0 STARLINK-3207,1 49756U 21115AJ  23216.92413894  .00000160  00000-0  28110-4 0  9998,2 49756  53.2165  73.8053 0000904  81.9798 278.1296 15.08846709 93708,6917.86,95.437,540.35,539.1,0.0
49756.0,STARLINK-3207,PAYLOAD,2023-08-06 07:33:52,15.08833032,0.000105,53.2167,67.5594,76.1826,283.9283,-9.296e-06,-4.36e-06,0.0,0 STARLINK-3207,1 49756U 21115AJ  23218.31518816 -.00000436  00000-0 -92960-5 0  9996,2 49756  53.2167  67.5594 0001050  76.1826 283.9283 15.08833032 93919,6917.902,95.438,540.493,539.04,0.0
49756.0,STARLINK-3207,PAYLOAD,2023-08-06 18:41:35,15.0882126,9.61e-05,53.2163,65.4788,76.438,283.6719,-9.6294e-05,-1.819e-05,0.0,0 STARLINK-3207,1 49756U 21115AJ  23218.77888190 -.00001819  00000-0 -96294-4 0  9990,2 49756  53.2163  65.4788 0000961  76.4380 283.6719 15.08821260 93983,6917.938,95.439,540.467,539.138,0.0
49756.0,STARLINK-3207,PAYLOAD,2023-08-07 07:24:40,15.0883224,8.38e-05,53.2168,63.0994,119.4859,240.6217,-7.6955e-05,-1.512e-05,0.0,0 STARLINK-3207,1 49756U 21115AJ  23219.30879699 -.00001512  00000-0 -76955-4 0  9996,2 49756  53.2168  63.0994 0000838 119.4859 240.6217 15.08832240 94069,6917.904,95.438,540.349,539.189,0.0
49756.0,STARLINK-3207,PAYLOAD,2023-08-07 20:07:44,15.08845014,9.5e-05,53.2165,60.7208,59.4976,300.611,4.7872e-05,4.74e-06,0.0,0 STARLINK-3207,1 49756U 21115AJ  23219.83870914  .00000474  00000-0  47872-4 0  9995,2 49756  53.2165  60.7208 0000950  59.4976 300.6110 15.08845014 94147,6917.865,95.437,540.387,539.073,0.0
49756.0,STARLINK-3207,PAYLOAD,2023-08-09 05:30:50,15.08846902,0.0001021,53.2158,54.4763,45.412,314.6956,0.00018979,2.735e-05,0.0,0 STARLINK-3207,1 49756U 21115AJ  23221.22974884  .00002735  00000-0  18979-3 0  9999,2 49756  53.2158  54.4763 0001021  45.4120 314.6956 15.08846902 94354,6917.859,95.437,540.431,539.018,0.0
49756.0,STARLINK-3207,PAYLOAD,2023-08-09 15:03:09,15.08839027,0.0001191,53.2148,52.6935,59.9245,300.1865,-5.9845e-05,-1.24e-05,0.0,0 STARLINK-3207,1 49756U 21115AJ  23221.62719234 -.00001240  00000-0 -59845-4 0  9999,2 49756  53.2148  52.6935 0001191  59.9245 300.1865 15.08839027 94416,6917.883,95.438,540.572,538.924,0.0
49756.0,STARLINK-3207,PAYLOAD,2023-08-10 08:32:23,15.08850204,5.52e-05,53.2174,49.4234,57.0232,303.0813,-0.00030531,-5.145e-05,0.0,0 STARLINK-3207,1 49756U 21115AJ  23222.35582463 -.00005145  00000-0 -30531-3 0  9990,2 49756  53.2174  49.4234 0000552  57.0232 303.0813 15.08850204 94523,6917.849,95.437,540.096,539.332,0.0
49756.0,STARLINK-3207,PAYLOAD,2023-08-11 11:33:57,15.08837101,9.48e-05,53.2161,44.3662,75.4533,284.6564,0.00011204,1.496e-05,0.0,0 STARLINK-3207,1 49756U 21115AJ  23223.48191137  .00001496  00000-0  11204-3 0  9998,2 49756  53.2161  44.3662 0000948  75.4533 284.6564 15.08837101 94691,6917.889,95.438,540.41,539.098,0.0
49756.0,STARLINK-3207,PAYLOAD,2023-08-11 21:06:15,15.08846206,9.05e-05,53.2164,42.5817,72.355,287.754,0.00021048,3.064e-05,0.0,0 STARLINK-3207,1 49756U 21115AJ  23223.87934746  .00003064  00000-0  21048-3 0  9992,2 49756  53.2164  42.5817 0000905  72.3550 287.7540 15.08846206 94755,6917.861,95.437,540.352,539.1,0.0
49756.0,STARLINK-3207,PAYLOAD,2023-08-12 11:24:44,15.08838736,9.46e-05,53.216,39.9053,78.1074,282.0025,0.00010492,1.382e-05,0.0,0 STARLINK-3207,1 49756U 21115AJ  23224.47551195  .00001382  00000-0  10492-3 0  9994,2 49756  53.2160  39.9053 0000946  78.1074 282.0025 15.08838736 94848,6917.884,95.438,540.404,539.095,0.0
49756.0,STARLINK-3207,PAYLOAD,2023-08-13 17:37:04,15.08823413,8.41e-05,53.2172,34.2548,87.526,272.5828,0.00025483,3.768e-05,0.0,0 STARLINK-3207,1 49756U 21115AJ  23225.73408230  .00003768  00000-0  25483-3 0  9991,2 49756  53.2172  34.2548 0000841  87.5260 272.5828 15.08823413 95036,6917.931,95.439,540.378,539.214,0.0
49756.0,STARLINK-3207,PAYLOAD,2023-08-14 11:06:18,15.08828453,7.22e-05,53.2197,30.9824,106.6442,253.4629,0.00014004,1.941e-05,0.0,0 STARLINK-3207,1 49756U 21115AJ  23226.46271874  .00001941  00000-0  14004-3 0  9992,2 49756  53.2197  30.9824 0000722 106.6442 253.4629 15.08828453 95144,6917.916,95.438,540.28,539.281,0.0
49756.0,STARLINK-3207,PAYLOAD,2023-08-14 17:27:52,15.08820496,7.1e-05,53.2173,29.7952,71.3651,288.7418,-8.3649e-05,-1.618e-05,0.0,0 STARLINK-3207,1 49756U 21115AJ  23226.72769196 -.00001618  00000-0 -83649-4 0  9995,2 49756  53.2173  29.7952 0000710  71.3651 288.7418 15.08820496 95183,6917.94,95.439,540.296,539.314,0.0
49756.0,STARLINK-3207,PAYLOAD,2023-08-15 10:57:06,15.08828136,7.52e-05,53.2185,26.5221,83.0209,277.0869,4.3264e-05,4.01e-06,0.0,0 STARLINK-3207,1 49756U 21115AJ  23227.45632993  .00000401  00000-0  43264-4 0  9996,2 49756  53.2185  26.5221 0000752  83.0209 277.0869 15.08828136 95297,6917.917,95.438,540.302,539.261,0.0
49756.0,STARLINK-3207,PAYLOAD,2023-08-15 17:18:38,15.0883804,7.4e-05,53.2179,25.3329,81.3734,278.7342,0.00013176,1.81e-05,0.0,0 STARLINK-3207,1 49756U 21115AJ  23227.72128378  .00001810  00000-0  13176-3 0  9996,2 49756  53.2179  25.3329 0000740  81.3734 278.7342 15.08838040 95331,6917.886,95.438,540.263,539.239,0.0
49756.0,STARLINK-3207,PAYLOAD,2023-08-16 17:09:25,15.08860811,7.39e-05,53.2169,20.8728,71.2658,288.8414,0.00062128,9.619e-05,0.0,0 STARLINK-3207,1 49756U 21115AJ  23228.71487729  .00009619  00000-0  62128-3 0  9990,2 49756  53.2169  20.8728 0000739  71.2658 288.8414 15.08860811 95483,6917.817,95.436,540.193,539.171,0.0
49756.0,STARLINK-3207,PAYLOAD,2023-08-17 10:38:39,15.08853397,0.0001206,53.2174,17.6002,73.8743,286.2382,0.00012781,1.748e-05,0.0,0 STARLINK-3207,1 49756U 21115AJ  23229.44351598  .00001748  00000-0  12781-3 0  9990,2 49756  53.2174  17.6002 0001206  73.8743 286.2382 15.08853397 95590,6917.839,95.437,540.539,538.87,0.0
49756.0,STARLINK-3207,PAYLOAD,2023-08-18 02:32:30,15.08846439,6.87e-05,53.2159,14.6303,88.7923,271.3148,-8.6546e-05,-1.665e-05,0.0,0 STARLINK-3207,1 49756U 21115AJ  23230.10591222 -.00001665  00000-0 -86546-4 0  9996,2 49756  53.2159  14.6303 0000687  88.7923 271.3148 15.08846439 95696,6917.861,95.437,540.201,539.25,0.0
49756.0,STARLINK-3207,PAYLOAD,2023-08-19 03:58:42,15.08833956,9.85e-05,53.2174,9.8713,85.7034,274.4071,-2.6858e-05,-7.15e-06,0.0,0 STARLINK-3207,1 49756U 21115AJ  23231.16576497 -.00000715  00000-0 -26858-4 0  9995,2 49756  53.2174   9.8713 0000985  85.7034 274.4071 15.08833956 95852,6917.899,95.438,540.445,539.082,0.0
49756.0,STARLINK-3207,PAYLOAD,2023-08-20 08:35:38,15.08832124,5.18e-05,53.2176,4.5185,92.9998,267.1053,0.00021607,3.152e-05,0.0,0 STARLINK-3207,1 49756U 21115AJ  23232.35808260  .00003152  00000-0  21607-3 0  9995,2 49756  53.2176   4.5185 0000518  92.9998 267.1053 15.08832124 96036,6917.904,95.438,540.128,539.411,0.0
49756.0,STARLINK-3207,PAYLOAD,2023-08-20 16:32:33,15.08844403,6.78e-05,53.2177,3.0317,73.714,286.3927,0.0002025,2.937e-05,0.0,0 STARLINK-3207,1 49756U 21115AJ  23232.68927629  .00002937  00000-0  20250-3 0  9995,2 49756  53.2177   3.0317 0000678  73.7140 286.3927 15.08844403 96082,6917.867,95.437,540.201,539.263,0.0
49756.0,STARLINK-3207,PAYLOAD,2023-08-21 03:40:15,15.08840216,7.78e-05,53.2178,0.9499,91.2427,268.8654,0.0001183,1.596e-05,0.0,0 STARLINK-3207,1 49756U 21115AJ  23233.15296086  .00001596  00000-0  11830-3 0  9998,2 49756  53.2178   0.9499 0000778  91.2427 268.8654 15.08840216 96152,6917.88,95.438,540.283,539.207,0.0
